start=new Date('2023-01-18T00:00:00.000Z').valueOf();
sats=[{"ELEMENT_SET_NO":"999","OBJECT_NAME":"STARLINK-3714","OBJECT_ID":"2022-029G","RCS_SIZE":"LARGE","MEAN_MOTION_DDOT":"0.0000000000000","NORAD_CAT_ID":"52094","ARG_OF_PERICENTER":"89.6709","REV_AT_EPOCH":"4752","TLE_LINE1":"1 52094U 22029G   23017.86261060  .00000265  00000-0  34764-4 0  9998","BSTAR":"0.00003476400000","REF_FRAME":"TEME","PERIOD":"95.438","SITE":"AFETR","ECCENTRICITY":"0.00012070","MEAN_MOTION_DOT":"0.00000265","EPHEMERIS_TYPE":"0","MEAN_ELEMENT_THEORY":"SGP4","INCLINATION":"53.2140","TIME_SYSTEM":"UTC","APOAPSIS":"540.595","CENTER_NAME":"EARTH","SEMIMAJOR_AXIS":"6917.895","COUNTRY_CODE":"US","MEAN_ANOMALY":"270.4422","RA_OF_ASC_NODE":"197.4333","TLE_LINE2":"2 52094  53.2140 197.4333 0001207  89.6709 270.4422 15.08835152 47523","GP_ID":"223381580","LAUNCH_DATE":"2022-03-19","MEAN_MOTION":"15.08835152","FILE":"3753286","EPOCH":"2023-01-17T20:42:09.555840","DECAY_DATE":null,"PERIAPSIS":"538.925","CLASSIFICATION_TYPE":"U","OBJECT_TYPE":"PAYLOAD"},{"NORAD_CAT_ID":"52095","ARG_OF_PERICENTER":"61.9107","ELEMENT_SET_NO":"999","OBJECT_NAME":"STARLINK-3701","OBJECT_ID":"2022-029H","RCS_SIZE":"LARGE","MEAN_MOTION_DDOT":"0.0000000000000","PERIOD":"95.438","SITE":"AFETR","ECCENTRICITY":"0.00018000","MEAN_MOTION_DOT":"0.00000040","REV_AT_EPOCH":"4751","TLE_LINE1":"1 52095U 22029H   23017.78532783  .00000040  00000-0  20636-4 0  9997","BSTAR":"0.00002063600000","REF_FRAME":"TEME","TIME_SYSTEM":"UTC","SEMIMAJOR_AXIS":"6917.890","APOAPSIS":"541.000","CENTER_NAME":"EARTH","COUNTRY_CODE":"US","MEAN_ANOMALY":"298.2067","RA_OF_ASC_NODE":"197.7757","TLE_LINE2":"2 52095  53.2144 197.7757 0001800  61.9107 298.2067 15.08836885 47511","GP_ID":"223381829","EPHEMERIS_TYPE":"0","MEAN_ELEMENT_THEORY":"SGP4","INCLINATION":"53.2144","LAUNCH_DATE":"2022-03-19","MEAN_MOTION":"15.08836885","DECAY_DATE":null,"FILE":"3753286","EPOCH":"2023-01-17T18:50:52.324512","CLASSIFICATION_TYPE":"U","PERIAPSIS":"538.510","OBJECT_TYPE":"PAYLOAD"},{"ARG_OF_PERICENTER":"51.1385","NORAD_CAT_ID":"52096","OBJECT_ID":"2022-029J","RCS_SIZE":"LARGE","MEAN_MOTION_DDOT":"0.0000000000000","ELEMENT_SET_NO":"999","OBJECT_NAME":"STARLINK-3717","ECCENTRICITY":"0.00028240","SITE":"AFETR","MEAN_MOTION_DOT":"0.00001080","PERIOD":"95.438","REF_FRAME":"TEME","REV_AT_EPOCH":"4763","BSTAR":"0.00008600800000","TLE_LINE1":"1 52096U 22029J   23017.76416934  .00001080  00000-0  86008-4 0  9995","MEAN_ANOMALY":"308.9859","RA_OF_ASC_NODE":"187.8699","TLE_LINE2":"2 52096  53.2167 187.8699 0002824  51.1385 308.9859 15.08837138 47631","GP_ID":"223382580","TIME_SYSTEM":"UTC","APOAPSIS":"541.708","SEMIMAJOR_AXIS":"6917.889","CENTER_NAME":"EARTH","COUNTRY_CODE":"US","MEAN_ELEMENT_THEORY":"SGP4","INCLINATION":"53.2167","EPHEMERIS_TYPE":"0","DECAY_DATE":null,"FILE":"3753286","EPOCH":"2023-01-17T18:20:24.230976","PERIAPSIS":"537.801","CLASSIFICATION_TYPE":"U","OBJECT_TYPE":"PAYLOAD","LAUNCH_DATE":"2022-03-19","MEAN_MOTION":"15.08837138"},{"PERIOD":"95.438","MEAN_MOTION_DOT":"0.00000436","ECCENTRICITY":"0.00021470","SITE":"AFETR","REV_AT_EPOCH":"4751","TLE_LINE1":"1 52098U 22029L   23017.78900782  .00000436  00000-0  45516-4 0  9991","BSTAR":"0.00004551600000","REF_FRAME":"TEME","NORAD_CAT_ID":"52098","ARG_OF_PERICENTER":"53.3908","OBJECT_NAME":"STARLINK-3665","ELEMENT_SET_NO":"999","MEAN_MOTION_DDOT":"0.0000000000000","RCS_SIZE":"LARGE","OBJECT_ID":"2022-029L","MEAN_MOTION":"15.08836957","LAUNCH_DATE":"2022-03-19","PERIAPSIS":"538.269","CLASSIFICATION_TYPE":"U","OBJECT_TYPE":"PAYLOAD","EPOCH":"2023-01-17T18:56:10.275648","FILE":"3753286","DECAY_DATE":null,"COUNTRY_CODE":"US","TIME_SYSTEM":"UTC","CENTER_NAME":"EARTH","APOAPSIS":"541.240","SEMIMAJOR_AXIS":"6917.890","RA_OF_ASC_NODE":"197.7663","TLE_LINE2":"2 52098  53.2159 197.7663 0002147  53.3908 306.7282 15.08836957 47519","GP_ID":"223383327","MEAN_ANOMALY":"306.7282","EPHEMERIS_TYPE":"0","MEAN_ELEMENT_THEORY":"SGP4","INCLINATION":"53.2159"},{"PERIOD":"95.437","MEAN_MOTION_DOT":"-0.00003278","ECCENTRICITY":"0.00022850","SITE":"AFETR","BSTAR":"-0.00018785000000","TLE_LINE1":"1 52100U 22029N   23017.78164102 -.00003278  00000-0 -18785-3 0  9999","REV_AT_EPOCH":"4751","REF_FRAME":"TEME","NORAD_CAT_ID":"52100","ARG_OF_PERICENTER":"51.3215","OBJECT_NAME":"STARLINK-3702","ELEMENT_SET_NO":"999","MEAN_MOTION_DDOT":"0.0000000000000","OBJECT_ID":"2022-029N","RCS_SIZE":"LARGE","MEAN_MOTION":"15.08854222","LAUNCH_DATE":"2022-03-19","OBJECT_TYPE":"PAYLOAD","PERIAPSIS":"538.121","CLASSIFICATION_TYPE":"U","FILE":"3753286","DECAY_DATE":null,"EPOCH":"2023-01-17T18:45:33.784128","COUNTRY_CODE":"US","APOAPSIS":"541.283","SEMIMAJOR_AXIS":"6917.837","CENTER_NAME":"EARTH","TIME_SYSTEM":"UTC","GP_ID":"223382080","TLE_LINE2":"2 52100  53.2150 197.8047 0002285  51.3215 308.7981 15.08854222 47516","RA_OF_ASC_NODE":"197.8047","MEAN_ANOMALY":"308.7981","EPHEMERIS_TYPE":"0","INCLINATION":"53.2150","MEAN_ELEMENT_THEORY":"SGP4"},{"MEAN_MOTION_DOT":"0.00000678","SITE":"AFETR","ECCENTRICITY":"0.00014500","PERIOD":"95.438","REF_FRAME":"TEME","BSTAR":"0.00006066800000","TLE_LINE1":"1 52101U 22029P   23017.57556977  .00000678  00000-0  60668-4 0  9999","REV_AT_EPOCH":"4747","ARG_OF_PERICENTER":"72.8435","NORAD_CAT_ID":"52101","MEAN_MOTION_DDOT":"0.0000000000000","RCS_SIZE":"LARGE","OBJECT_ID":"2022-029P","OBJECT_NAME":"STARLINK-3703","ELEMENT_SET_NO":"999","OBJECT_TYPE":"PAYLOAD","CLASSIFICATION_TYPE":"U","PERIAPSIS":"538.754","FILE":"3753023","DECAY_DATE":null,"EPOCH":"2023-01-17T13:48:49.228128","MEAN_MOTION":"15.08836149","LAUNCH_DATE":"2022-03-19","TLE_LINE2":"2 52101  53.2134 198.7211 0001450  72.8435 287.2716 15.08836149 47477","GP_ID":"223323223","RA_OF_ASC_NODE":"198.7211","MEAN_ANOMALY":"287.2716","COUNTRY_CODE":"US","SEMIMAJOR_AXIS":"6917.892","APOAPSIS":"540.760","CENTER_NAME":"EARTH","TIME_SYSTEM":"UTC","INCLINATION":"53.2134","MEAN_ELEMENT_THEORY":"SGP4","EPHEMERIS_TYPE":"0"},{"OBJECT_ID":"2022-029Q","RCS_SIZE":"LARGE","MEAN_MOTION_DDOT":"0.0000000000000","ELEMENT_SET_NO":"999","OBJECT_NAME":"STARLINK-3709","ARG_OF_PERICENTER":"71.3843","NORAD_CAT_ID":"52102","REF_FRAME":"TEME","BSTAR":"0.00006902800000","TLE_LINE1":"1 52102U 22029Q   23017.45232830  .00000811  00000-0  69028-4 0  9994","REV_AT_EPOCH":"4759","ECCENTRICITY":"0.00016690","SITE":"AFETR","MEAN_MOTION_DOT":"0.00000811","PERIOD":"95.438","INCLINATION":"53.2160","MEAN_ELEMENT_THEORY":"SGP4","EPHEMERIS_TYPE":"0","MEAN_ANOMALY":"288.7331","GP_ID":"223322973","TLE_LINE2":"2 52102  53.2160 189.2736 0001669  71.3843 288.7331 15.08833484 47594","RA_OF_ASC_NODE":"189.2736","CENTER_NAME":"EARTH","APOAPSIS":"540.920","SEMIMAJOR_AXIS":"6917.900","TIME_SYSTEM":"UTC","COUNTRY_CODE":"US","FILE":"3753023","DECAY_DATE":null,"EPOCH":"2023-01-17T10:51:21.165120","OBJECT_TYPE":"PAYLOAD","PERIAPSIS":"538.611","CLASSIFICATION_TYPE":"U","LAUNCH_DATE":"2022-03-19","MEAN_MOTION":"15.08833484"},{"PERIOD":"95.438","SITE":"AFETR","ECCENTRICITY":"0.00016040","MEAN_MOTION_DOT":"0.00000537","BSTAR":"0.00005183400000","TLE_LINE1":"1 52103U 22029R   23017.75680423  .00000537  00000-0  51834-4 0  9994","REV_AT_EPOCH":"4763","REF_FRAME":"TEME","NORAD_CAT_ID":"52103","ARG_OF_PERICENTER":"70.7218","ELEMENT_SET_NO":"999","OBJECT_NAME":"STARLINK-3705","OBJECT_ID":"2022-029R","RCS_SIZE":"LARGE","MEAN_MOTION_DDOT":"0.0000000000000","LAUNCH_DATE":"2022-03-19","MEAN_MOTION":"15.08840123","FILE":"3753286","DECAY_DATE":null,"EPOCH":"2023-01-17T18:09:47.885472","OBJECT_TYPE":"PAYLOAD","CLASSIFICATION_TYPE":"U","PERIAPSIS":"538.635","APOAPSIS":"540.855","CENTER_NAME":"EARTH","SEMIMAJOR_AXIS":"6917.880","TIME_SYSTEM":"UTC","COUNTRY_CODE":"US","MEAN_ANOMALY":"289.3948","GP_ID":"223382826","TLE_LINE2":"2 52103  53.2169 187.8932 0001604  70.7218 289.3948 15.08840123 47638","RA_OF_ASC_NODE":"187.8932","EPHEMERIS_TYPE":"0","INCLINATION":"53.2169","MEAN_ELEMENT_THEORY":"SGP4"},{"FILE":"3753286","EPOCH":"2023-01-17T18:00:34.812288","DECAY_DATE":null,"OBJECT_TYPE":"PAYLOAD","CLASSIFICATION_TYPE":"U","PERIAPSIS":"537.928","LAUNCH_DATE":"2022-03-19","MEAN_MOTION":"15.08840150","MEAN_ANOMALY":"310.4568","GP_ID":"223381581","TLE_LINE2":"2 52105  53.2167 187.9280 0002626  49.6654 310.4568 15.08840150 47633","RA_OF_ASC_NODE":"187.9280","APOAPSIS":"541.562","CENTER_NAME":"EARTH","SEMIMAJOR_AXIS":"6917.880","TIME_SYSTEM":"UTC","COUNTRY_CODE":"US","INCLINATION":"53.2167","MEAN_ELEMENT_THEORY":"SGP4","EPHEMERIS_TYPE":"0","ECCENTRICITY":"0.00026260","SITE":"AFETR","MEAN_MOTION_DOT":"0.00001200","PERIOD":"95.438","REF_FRAME":"TEME","BSTAR":"0.00009350400000","TLE_LINE1":"1 52105U 22029T   23017.75040292  .00001200  00000-0  93504-4 0  9998","REV_AT_EPOCH":"4763","ARG_OF_PERICENTER":"49.6654","NORAD_CAT_ID":"52105","RCS_SIZE":"LARGE","OBJECT_ID":"2022-029T","MEAN_MOTION_DDOT":"0.0000000000000","ELEMENT_SET_NO":"999","OBJECT_NAME":"STARLINK-3706"},{"CLASSIFICATION_TYPE":"U","PERIAPSIS":"537.876","OBJECT_TYPE":"PAYLOAD","EPOCH":"2023-01-17T21:40:26.671008","FILE":"3753286","DECAY_DATE":null,"MEAN_MOTION":"15.08841912","LAUNCH_DATE":"2022-03-19","RA_OF_ASC_NODE":"197.2561","GP_ID":"223381830","TLE_LINE2":"2 52106  53.2158 197.2561 0002694  42.1272 317.9927 15.08841912 47525","MEAN_ANOMALY":"317.9927","COUNTRY_CODE":"US","TIME_SYSTEM":"UTC","CENTER_NAME":"EARTH","APOAPSIS":"541.603","SEMIMAJOR_AXIS":"6917.875","MEAN_ELEMENT_THEORY":"SGP4","INCLINATION":"53.2158","EPHEMERIS_TYPE":"0","MEAN_MOTION_DOT":"0.00000146","ECCENTRICITY":"0.00026940","SITE":"AFETR","PERIOD":"95.437","REF_FRAME":"TEME","REV_AT_EPOCH":"4752","BSTAR":"0.00002731500000","TLE_LINE1":"1 52106U 22029U   23017.90308647  .00000146  00000-0  27315-4 0  9992","ARG_OF_PERICENTER":"42.1272","NORAD_CAT_ID":"52106","MEAN_MOTION_DDOT":"0.0000000000000","RCS_SIZE":"LARGE","OBJECT_ID":"2022-029U","OBJECT_NAME":"STARLINK-3670","ELEMENT_SET_NO":"999"}];
